ONEWEB-0584             
1 54651U 22166K   24084.89563373  .00000022  00000+0  22313-4 0  9998
2 54651  87.9273  46.0405 0002325  81.5260 278.6138 13.21828464 63948
ONEWEB-0585             
1 54652U 22166L   24084.92088159  .00000129  00000+0  28057-3 0  9995
2 54652  87.9278  46.0418 0001827  79.9811 280.1529 13.21825265 63956
ONEWEB-0586             
1 54653U 22166M   24084.93349038  .00000009  00000+0 -87461-5 0  9997
2 54653  87.9271  46.0595 0002153  80.1677 279.9700 13.21826994 64423
ONEWEB-0587             
1 54654U 22166N   24084.94296441  .00000018  00000+0  11332-4 0  9990
2 54654  87.9270  46.0146 0001612  83.5127 276.6191 13.21825802 64112
ONEWEB-0589             
1 54655U 22166P   24085.15743779  .00000130  00000+0  28373-3 0  9993
2 54655  87.9272  45.9996 0002947  81.2559 278.8909 13.21825872 64479
ONEWEB-0590             
1 54656U 22166Q   24085.18108383 -.00000117  00000+0 -31597-3 0  9992
2 54656  87.9276  45.9994 0001830  90.3994 269.7349 13.21826901 64455
ONEWEB-0591             
1 54657U 22166R   24084.96659939  .00000017  00000+0  98334-5 0  9997
2 54657  87.9271  46.0415 0002087  83.2955 276.8416 13.21823975 63994
ONEWEB-0592             
1 54658U 22166S   24084.89406477  .00000057  00000+0  10678-3 0  9994
2 54658  87.9267  46.0246 0002232  86.1845 273.9544 13.21824099 63868
